[{"title": "Title", "adres": "Adres", "zipcode": "Zipcode", "null": [""]}, {"title": "Smits Noord-Zuid Hollandsch Koffiehuis", "adres": "Stationsplein 10", "zipcode": "1012 AB", "null": [""]}, {"title": "Afrikaans Restaurant Kilimanjaro", "adres": "Rapenburgerplein 6 HS", "zipcode": "1011 VB", "null": [""]}, {"title": "Hotel Van der Valk", "adres": "Purmerenderweg 232", "zipcode": "1461 DN", "null": [""]}, {"title": "Caf\u00ef\u00bf\u00bd het Paleis", "adres": "Paleisstraat 16", "zipcode": "1012 RB", "null": [""]}, {"title": "Amstel Bar & Brasserie", "adres": "Professor Tulpplein 1", "zipcode": "1018 GX", "null": [""]}, {"title": "Alfonso's Mexican Restaurant", "adres": "Utrechtsestraat 32", "zipcode": "1017 VN", "null": [""]}, {"title": "Akbar Indian Restaurant", "adres": "Korte Leidsedwarsstraat 15", "zipcode": "1017 PV", "null": [""]}, {"title": "Al Argentino Restaurant Steakhouse", "adres": "Zeedijk 29A", "zipcode": "1012 AP", "null": [""]}, {"title": "Cinema Paradiso", "adres": "Westerstraat 186", "zipcode": "1015 MR", "null": [""]}, {"title": "Caffe Ristretto - Lunchrestaurant & Caf\u00ef\u00bf\u00bd", "adres": "Nieuwezijds Voorburgwal 182", "zipcode": "1012 SJ", "null": [""]}, {"title": "Herberg Hooghoudt", "adres": "Reguliersgracht 11", "zipcode": "1017 LJ", "null": [""]}, {"title": "De Stijl", "adres": "John M. Keynesplein 2", "zipcode": "1066 EP", "null": [""]}, {"title": "Caf\u00ef\u00bf\u00bd Restaurant de Passage", "adres": "Nieuwendijk 224", "zipcode": "1012 MX", "null": [""]}, {"title": "De Culinaire Werkplaats", "adres": "Fannius Scholtenstraat 10 HS", "zipcode": "1051 EX", "null": [""]}, {"title": "De Kroonprins", "adres": "Prins Hendrikkade 52-57", "zipcode": "1012 AC", "null": [""]}, {"title": "De Bijenkorf Kitchen", "adres": "Dam 1", "zipcode": "1012 JS", "null": [""]}, {"title": "De Pannekoekkelder", "adres": "Sint Luciensteeg 15", "zipcode": "1012 PM", "null": [""]}, {"title": "Restaurant Haesje Claes", "adres": "Spuistraat  275", "zipcode": "1012 RV", "null": [""]}, {"title": "Blue Amsterdam", "adres": "Singel 457", "zipcode": "1012 WP", "null": [""]}, {"title": "Restaurant & Brasserie Luden", "adres": "Spuistraat 304-306", "zipcode": "1012 VX", "null": [""]}, {"title": "Restaurant Indrapura", "adres": "Rembrandtplein 42", "zipcode": "1017 CV", "null": [""]}, {"title": "Restaurant De Kas", "adres": "Kamerlingh Onneslaan  3", "zipcode": "1097 DE", "null": [""]}, {"title": "Lucius Visrestaurant", "adres": "Spuistraat 247", "zipcode": "1012 VP", "null": [""]}, {"title": "Moeders", "adres": "Rozengracht 251", "zipcode": "1016 SX", "null": [""]}, {"title": "Restaurant Los Argentinos", "adres": "Leidsekruisstraat 7-9", "zipcode": "1017 RE", "null": [""]}, {"title": "Palazzo", "adres": "Arena boulevard 61-75", "zipcode": "1101 DL", "null": [""]}, {"title": "Restaurant Mercure Amsterdam Airport", "adres": "Oude Haagseweg 20", "zipcode": "1066 BW", "null": [""]}, {"title": "Restaurant Majestic", "adres": "Dam 3-7", "zipcode": "1012 JS", "null": [""]}, {"title": "Merkelbach", "adres": "Middenweg 72", "zipcode": "1097 BS", "null": [""]}, {"title": "Matias", "adres": "Korte Leidsedwarsstraat 95", "zipcode": "1017 PX", "null": [""]}, {"title": "Girassol", "adres": "Weesperzijde 135", "zipcode": "1091 ES", "null": [""]}, {"title": "Fifteen Amsterdam", "adres": "Jollemanhof 9", "zipcode": "1019 GW", "null": [""]}, {"title": "Madre Maria", "adres": "Nieuwendijk 40", "zipcode": "1012 ML", "null": [""]}, {"title": "Het Nieuwe Kafe Restaurant", "adres": "Eggertstraat 8", "zipcode": "1012 NN", "null": [""]}, {"title": "Het Zwaantje", "adres": "Berenstraat 12", "zipcode": "1016 GH", "null": [""]}, {"title": "Rose's Cantina", "adres": "Reguliersdwarsstraat 38", "zipcode": "1017 BM", "null": [""]}, {"title": "Restaurant Syriana", "adres": "Akersluis 8", "zipcode": "1066 EZ", "null": [""]}, {"title": "Restaurant-Caf\u00ef\u00bf\u00bd In de Waag", "adres": "Nieuwmarkt 4", "zipcode": "1012 CR", "null": [""]}, {"title": "Supperclub", "adres": "Singel 460", "zipcode": "1017 AW", "null": [""]}, {"title": "Restaurant Neva", "adres": "Amstel 51", "zipcode": "1018 EJ", "null": [""]}, {"title": "Royal Amsterdam Hotel & Restaurant", "adres": "Rembrandtplein 44", "zipcode": "1017 CV", "null": [""]}, {"title": "Puri Mas", "adres": "Lange Leidsedwarsstraat 37-41", "zipcode": "1017 NG", "null": [""]}, {"title": "Patisserie Pompadour", "adres": "Kerkstraat 148", "zipcode": "1017 GR", "null": [""]}, {"title": "Pasta e Basta", "adres": "Nieuwe Spiegelstraat 8", "zipcode": "1017 DE", "null": [""]}, {"title": "Panagia", "adres": "Nieuwendijk 31", "zipcode": "1012 MA", "null": [""]}, {"title": "Hard Rock Cafe Amsterdam", "adres": "Max Euweplein 57-61", "zipcode": "1017 MA", "null": [""]}, {"title": "Healthfood Restaurant De Bolhoed", "adres": "Prinsengracht 62", "zipcode": "1015 DX", "null": [""]}, {"title": "Guadalupe", "adres": "Prins Hendrikkade 92", "zipcode": "1012 AE", "null": [""]}, {"title": "Restaurant The College Hotel", "adres": "Roelof Hartstraat 1", "zipcode": "1071 VE", "null": [""]}, {"title": "Tempo Doeloe", "adres": "Utrechtsestraat 75", "zipcode": "1017 VJ", "null": [""]}, {"title": "Sea Palace", "adres": "Oosterdokskade 8", "zipcode": "1011 AE", "null": [""]}, {"title": "St. George", "adres": "Nieuwezijds Voorburgwal 93/95", "zipcode": "1012 RE", "null": [""]}, {"title": "Small Talk Restaurant en Coffee Corner", "adres": "Van Baerlestraat 52", "zipcode": "1071 BA", "null": [""]}, {"title": "Vegetarisch Restaurant De Waaghals", "adres": "Frans Halsstraat 29", "zipcode": "1072 BK", "null": [""]}, {"title": "VAKZUID", "adres": "Olympisch Stadion 35", "zipcode": "1076 DE", "null": [""]}, {"title": "Bazar Amsterdam", "adres": "Albert Cuypstraat 182", "zipcode": "1073 BL", "null": [""]}, {"title": "Indonesisch Restaurant Sama Sebo", "adres": "P Cornelisz Hooftstr 27", "zipcode": "1071 BL", "null": [""]}, {"title": "Humphrey's", "adres": "Nieuwezijds Kolk 23", "zipcode": "1012 PV", "null": [""]}, {"title": "Hotel Arena - Restaurant", "adres": "'s-Gravesandestraat 51", "zipcode": "1092 AA", "null": [""]}, {"title": "Koh-I-Noor Rokin", "adres": "Rokin 18", "zipcode": "1012 KR", "null": [""]}, {"title": "Koh-I-Noor Westermarkt", "adres": "Westermarkt 29HS", "zipcode": "1016 DJ", "null": [""]}, {"title": "La Madonna", "adres": "Nieuwendijk 33", "zipcode": "1012 MA", "null": [""]}, {"title": "La Madonnina", "adres": "Rembrandtplein 12A", "zipcode": "1017 CV", "null": [""]}, {"title": "Little Buddha Amsterdam", "adres": "Kleine-Gartmanplantsoen 17", "zipcode": "1017 RP", "null": [""]}, {"title": "Le Rendez-Vous", "adres": "Weteringschans 75", "zipcode": "1017 RX", "null": [""]}, {"title": "Noordwest", "adres": "Noordermarkt 42", "zipcode": "1015 NA", "null": [""]}, {"title": "Grill Steak House Maya", "adres": "Korte Leidsedwarsstraat 111", "zipcode": "1017 PX", "null": [""]}, {"title": "Restaurant BoatHouse", "adres": "Noorderplassenweg 150", "zipcode": "1316 VV", "null": [""]}, {"title": "Lounge-Bar-Restaurant  &quot:Vijf&quot:", "adres": "Prinsenstraat 5", "zipcode": "1135 AX", "null": [""]}, {"title": "De Koperen Bel", "adres": "Dam 5a", "zipcode": "1506 BC", "null": [""]}, {"title": "'t Heerenhuis", "adres": "Starnmeerdijk 21", "zipcode": "1458 PM", "null": [""]}, {"title": "Havenrestaurant De Lunch", "adres": "Haven 96", "zipcode": "1131 EV", "null": [""]}, {"title": "'t Beemster Spijshuis", "adres": "Middenweg 177", "zipcode": "1462 HJ", "null": [""]}, {"title": "Het Wapen van Assendelft", "adres": "Dorpsstraat 533", "zipcode": "1566 BL", "null": [""]}, {"title": "Restaurant De Halve Maen", "adres": "Dorpsstraat 24", "zipcode": "1431 CD", "null": [""]}, {"title": "Tokyo Cafe", "adres": "Spui 15", "zipcode": "1012 WX", "null": [""]}, {"title": "Tandoor Indian Restaurant", "adres": "Lange Leidsedwarsstraat 56", "zipcode": "1017 NM", "null": [""]}, {"title": "Restaurant 1e Klas & 1e Klas Pub", "adres": "Stationsplein/spoor 2B 15", "zipcode": "1012 AB", "null": [""]}, {"title": "Lef uit + eten", "adres": "Dam 32", "zipcode": "1506 BE", "null": [""]}, {"title": "Rancho Argentinian Grill", "adres": "Gyroscoopweg 132", "zipcode": "1042 AZ", "null": [""]}, {"title": "Bordewijk", "adres": "Noordermarkt 7", "zipcode": "1015 MV", "null": [""]}, {"title": "Grand-Caf\u00ef\u00bf\u00bd - Brasserie Maximiliaan", "adres": "Nieuwezijds Voorburgwal 176-180", "zipcode": "1012 SJ", "null": [""]}, {"title": "Bond", "adres": "Valeriusstraat 128b", "zipcode": "1075 GD", "null": [""]}, {"title": "Bloem op IJburg", "adres": "IJburglaan 1289", "zipcode": "1087 GJ", "null": [""]}, {"title": "Bloesem", "adres": "Binnen Dommersstraat 13", "zipcode": "1013 HK", "null": [""]}, {"title": "Bickers a/d Werf", "adres": "Bickerswerf 2", "zipcode": "1013 KX", "null": [""]}, {"title": "Blauw", "adres": "Amstelveenseweg 158-160", "zipcode": "1075 XN", "null": [""]}, {"title": "Blauw aan de Wal", "adres": "Oudezijds Achterburgwal 99", "zipcode": "1012 DD", "null": [""]}, {"title": "Burgermeester", "adres": "Albert Cuypstraat 48", "zipcode": "1072 CV", "null": [""]}, {"title": "Burgers Patio", "adres": "Tweede Tuindwarsstraat 12", "zipcode": "1015 RZ", "null": [""]}, {"title": "restaurant BIHP", "adres": "Keizersgracht 335", "zipcode": "1016 EG", "null": [""]}, {"title": "A Tavola", "adres": "Kadijksplein 9", "zipcode": "1018 AC", "null": [""]}, {"title": "As", "adres": "Prinses Irenestraat 19", "zipcode": "1077 WT", "null": [""]}, {"title": "Arc - tijdelijk gesloten", "adres": "Reguliersdwarsstraat", "zipcode": "1017 BM", "null": [""]}, {"title": "Balthazar's Keuken", "adres": "Elandsgracht 108", "zipcode": "1016 VA", "null": [""]}, {"title": "Assagi", "adres": "Tweede Egelantiersdwarsstraat 6", "zipcode": "1015 SC", "null": [""]}, {"title": "Beddington's", "adres": "Utrechtsedwarsstraat 141", "zipcode": "1017 WE", "null": [""]}, {"title": "Bar Waldorf", "adres": "Elandsgracht 2", "zipcode": "1016 TV", "null": [""]}, {"title": "Blok 4", "adres": "IJburglaan 500", "zipcode": "1087 BT", "null": [""]}, {"title": "Beulings", "adres": "Beulingstraat 9", "zipcode": "1017 BA", "null": [""]}, {"title": "Bicken", "adres": "Overtoom 28-30", "zipcode": "1054 HJ", "null": [""]}, {"title": "Affourtit", "adres": "Koninginneweg 209", "zipcode": "1075 CS", "null": [""]}, {"title": "Amstelhaven", "adres": "Mauritskade 1", "zipcode": "1091 EW", "null": [""]}, {"title": "A la Ferme", "adres": "Govert Flinckstraat 251", "zipcode": "1073 BX", "null": [""]}, {"title": "Chocolate Bar", "adres": "1e van der Helststraat 62A", "zipcode": "1072 NX", "null": [""]}, {"title": "Chang-I", "adres": "Jan Willem Brouwersstraat 7", "zipcode": "1071 LH", "null": [""]}, {"title": "Casa di David", "adres": "Singel 426", "zipcode": "1017 AV", "null": [""]}, {"title": "Cedars", "adres": "Heemstedestraat 80", "zipcode": "1058 NP", "null": [""]}, {"title": "Casa Peru", "adres": "Leidsegracht 68", "zipcode": "1016 CP", "null": [""]}, {"title": "D'Antica", "adres": "Reguliersdwarsstraat 80-82", "zipcode": "1017 BN", "null": [""]}, {"title": "Caf\u00ef\u00bf\u00bd Restaurant Edel", "adres": "Postjesweg 1", "zipcode": "1057 DT", "null": [""]}, {"title": "Caf\u00ef\u00bf\u00bd George", "adres": "Leidsegracht 84", "zipcode": "1016 CR", "null": [""]}, {"title": "Caf\u00ef\u00bf\u00bd Restaurant Amsterdam", "adres": "Watertorenplein 6", "zipcode": "1051 PA", "null": [""]}, {"title": "De Pont", "adres": "Buiksloterweg 3-5", "zipcode": "1031 CC", "null": [""]}, {"title": "Dauphine", "adres": "Prins Bernhardplein 175", "zipcode": "1097 BL", "null": [""]}, {"title": "De Belhamel", "adres": "Brouwersgracht 60", "zipcode": "1013 GX", "null": [""]}, {"title": "De Cantine", "adres": "Rietlandpark 373", "zipcode": "1019 EM", "null": [""]}, {"title": "De Luwte", "adres": "Leliegracht 26-28", "zipcode": "1015 DG", "null": [""]}, {"title": "Fa. Pekelhaaring", "adres": "Van Woustraat 127-129", "zipcode": "1074 AH", "null": [""]}, {"title": "Restaurant Casablanca Vari\u00ef\u00bf\u00bdt\u00ef\u00bf\u00bd", "adres": "Zeedijk 24", "zipcode": "1012 AZ", "null": [""]}, {"title": "Drink & Eetlokaal Het Schoolhuis", "adres": "Dorpsstraat Holysloot 38", "zipcode": "1028 BE", "null": [""]}, {"title": "Dynasty", "adres": "Reguliersdwarsstraat 30", "zipcode": "1017 BM", "null": [""]}, {"title": "Envy", "adres": "Prinsengracht 381", "zipcode": "1016 HL", "null": [""]}, {"title": "Gauchos Beethovenstraat", "adres": "Beethovenstraat 55", "zipcode": "1077 HN", "null": [""]}, {"title": "Freud", "adres": "Spaarndammerstraat 424", "zipcode": "1013 SZ", "null": [""]}, {"title": "Incanto", "adres": "Amstel 2", "zipcode": "1017 AA", "null": [""]}, {"title": "Hemelse Modder", "adres": "Oude Waal 11", "zipcode": "1011 BZ", "null": [""]}, {"title": "Herengracht", "adres": "Herengracht 435", "zipcode": "1017 BR", "null": [""]}, {"title": "Hostaria", "adres": "Tweede Egelantiersdwarsstraat 9", "zipcode": "1015 SB", "null": [""]}, {"title": "Hotel de Goudfazant", "adres": "Aambeeldstraat 10H", "zipcode": "1021 KB", "null": [""]}, {"title": "Kantjil en de tijger", "adres": "Spuistraat 291-293", "zipcode": "1012 VS", "null": [""]}, {"title": "Italiaans Restaurant Pizzeria Pepe", "adres": "Westerstraat 144", "zipcode": "1015 MP", "null": [""]}, {"title": "La Vallade", "adres": "Ringdijk 23", "zipcode": "1097 AB", "null": [""]}, {"title": "Klokspijs", "adres": "Hemonystraat 38", "zipcode": "1074 BS", "null": [""]}, {"title": "La Oliva", "adres": "Egelantiersstraat 122-124", "zipcode": "1015 PR", "null": [""]}, {"title": "Koevoet", "adres": "Lindenstraat 17", "zipcode": "1015 KV", "null": [""]}, {"title": "Le Restaurant", "adres": "Tweede Jan Steenstraat 3", "zipcode": "1073 VK", "null": [""]}, {"title": "Le Hollandais", "adres": "Amsteldijk 41", "zipcode": "1074 HV", "null": [""]}, {"title": "Le Garage", "adres": "Ruysdaelstraat 54-56", "zipcode": "1071 XE", "null": [""]}, {"title": "Momo", "adres": "Hobbemastraat 1", "zipcode": "1071 XZ", "null": [""]}, {"title": "Nassau", "adres": "De Wittenkade 105A", "zipcode": "1052 AG", "null": [""]}, {"title": "Nevel", "adres": "Westerdoksdijk 40", "zipcode": "1013 AE", "null": [""]}, {"title": "Mamouche", "adres": "Quellijnstraat 104", "zipcode": "1072 XZ", "null": [""]}, {"title": "Mantoe", "adres": "Tweede Leliedwarsstraat 13", "zipcode": "1015 TB", "null": [""]}, {"title": "Mashua", "adres": "Prinsengracht 703", "zipcode": "1017 JV", "null": [""]}, {"title": "Mayur", "adres": "Korte Leidsedwarsstraat 203", "zipcode": "1017 RB", "null": [""]}, {"title": "Meghna", "adres": "Utrechtsestraat 28", "zipcode": "1017 VN", "null": [""]}, {"title": "Marius", "adres": "Barentszstraat 243", "zipcode": "1013 NM", "null": [""]}, {"title": "Lof", "adres": "Haarlemmerstraat 62", "zipcode": "1013 ES", "null": [""]}, {"title": "Restaurant Looks", "adres": "Binnen Bantammerstraat 5-7", "zipcode": "1011 CH", "null": [""]}, {"title": "Ra\u00ef\u00bf\u00bdnara\u00ef\u00bf\u00bd", "adres": "Polonceaukade 40", "zipcode": "1014 DA", "null": [""]}, {"title": "Quattro Gatti", "adres": "Hartenstraat 3", "zipcode": "1016 BZ", "null": [""]}, {"title": "Prego", "adres": "Herenstraat 25", "zipcode": "1015 BZ", "null": [""]}, {"title": "Ponte Arcari", "adres": "Herengracht 534", "zipcode": "1017 CG", "null": [""]}, {"title": "Peper & Zout", "adres": "Overtoom 109", "zipcode": "1054 HD", "null": [""]}, {"title": "Kapitein Zeppos", "adres": "Gebed Zonder End 5", "zipcode": "1012 HS", "null": [""]}, {"title": "P.King", "adres": "Herengracht 515", "zipcode": "1017 BV", "null": [""]}, {"title": "Nomads ** GESLOTEN", "adres": "Rozengracht 133-I", "zipcode": "1016 LV", "null": [""]}, {"title": "Orbit", "adres": "Scheldestraat 95", "zipcode": "1078 GJ", "null": [""]}, {"title": "New Dorrius", "adres": "Nieuwendijk 60", "zipcode": "1012 MP", "null": [""]}, {"title": "Pont 13", "adres": "Haparandadam 50", "zipcode": "1013 AK", "null": [""]}, {"title": "Red", "adres": "Keizersgracht 594", "zipcode": "1017 EN", "null": [""]}, {"title": "Seven seas", "adres": "Prins Hendrikkade 108", "zipcode": "1011 AK", "null": [""]}, {"title": "Spanjer en van Twist", "adres": "Leliegracht 60", "zipcode": "1015 DJ", "null": [""]}, {"title": "Sing Sing", "adres": "Cornelis Krusemanstraat 15", "zipcode": "1075 NB", "null": [""]}, {"title": "Stanislavski", "adres": "Leidseplein 26", "zipcode": "1017 PT", "null": [""]}, {"title": "Villa Nieuwmarkt", "adres": "Nieuwmarkt 25", "zipcode": "1011 JS", "null": [""]}, {"title": "Vis aan de Schelde", "adres": "Scheldeplein 4", "zipcode": "1078 GR", "null": [""]}, {"title": "Vinkeles", "adres": "Keizersgracht 384", "zipcode": "1016 GB", "null": [""]}, {"title": "Vapiano", "adres": "Oosterdokskade 145", "zipcode": "1011 DL", "null": [""]}, {"title": "Vasso", "adres": "Rozenboomsteeg 10", "zipcode": "1012 PR", "null": [""]}, {"title": "Trattoria de Donna Sofia", "adres": "Anjeliersstraat 300", "zipcode": "1015 NK", "null": [""]}, {"title": "Toscanini", "adres": "Lindengracht 75", "zipcode": "1015 KD", "null": [""]}, {"title": "Van Puffelen", "adres": "Prinsengracht 375-377", "zipcode": "1016 HL", "null": [""]}, {"title": "Van Harte", "adres": "Hartenstraat 24", "zipcode": "1016 CC", "null": [""]}, {"title": "Take Thai", "adres": "Utrechtsestraat 87", "zipcode": "1017 VK", "null": [""]}, {"title": "Thai & Co", "adres": "Haarlemmerstraat 54", "zipcode": "1013 ES", "null": [""]}, {"title": "The Colour Kitchen", "adres": "Jan Evertsenstraat 747", "zipcode": "1061 XZ", "null": [""]}, {"title": "The French Cafe", "adres": "Gerard Doustraat 98", "zipcode": "1072 VX", "null": [""]}, {"title": "The White Elephant", "adres": "Van Woustraat 3", "zipcode": "1074 AA", "null": [""]}, {"title": "Winkel 43", "adres": "Noordermarkt 43", "zipcode": "1015 NA", "null": [""]}, {"title": "Yam Yam", "adres": "Frederik Hendrikstraat 88-90", "zipcode": "1052 HZ", "null": [""]}, {"title": "Zabayon", "adres": "Ceintuurbaan 71", "zipcode": "1072 EW", "null": [""]}, {"title": "Zen", "adres": "Frans Halsstraat 38", "zipcode": "1072 BS", "null": [""]}, {"title": "Stout!", "adres": "Haarlemmerstraat 73", "zipcode": "1013 EL", "null": [""]}, {"title": "Van De Kaart", "adres": "Prinsengracht 512", "zipcode": "1017 KH", "null": [""]}, {"title": "Restaurant VandeMarkt & Wine Wijn", "adres": "Weesperzijde 144-147", "zipcode": "1091 ET", "null": [""]}, {"title": "De Kraai", "adres": "Kraaienpad 1", "zipcode": "1509 AX", "null": [""]}, {"title": "I Gemelli", "adres": "Dorpsstraat 393", "zipcode": "1566 BE", "null": [""]}, {"title": "Da Marcello", "adres": "Zuiderhoofdstraat 72", "zipcode": "1561 AP", "null": [""]}, {"title": "Grand Caf\u00ef\u00bf\u00bd Hannes", "adres": "Dorpsstraat 533", "zipcode": "1566 BL", "null": [""]}, {"title": "De Keuken van Von", "adres": "Zuiddijk 49", "zipcode": "1501 CB", "null": [""]}, {"title": "Het Tolhuys aan de Zaan", "adres": "Westzijde 216", "zipcode": "1506 GG", "null": [""]}, {"title": "Yoshi Yoshi", "adres": "Gedempte Gracht 1", "zipcode": "1506 CA", "null": [""]}, {"title": "Senses", "adres": "Vijzelstraat 45", "zipcode": "1017 HE", "null": [""]}, {"title": "De Ponteneur", "adres": "Eerste van Swindenstraat 581", "zipcode": "1093 LC", "null": [""]}, {"title": "Revan", "adres": "Van Woustraat 206-212", "zipcode": "1073 NA", "null": [""]}, {"title": "Flinders Caf\u00ef\u00bf\u00bd", "adres": "Frederik Hendrikplnts 36", "zipcode": "1052 XS", "null": [""]}, {"title": "The ART Brasserie", "adres": "Spaarndammerdijk 302", "zipcode": "1013 ZX", "null": [""]}, {"title": "Mata Hari", "adres": "Oudezijds Achterburgwal 22", "zipcode": "1012 DM", "null": [""]}, {"title": "East57", "adres": "Eerste Ringdijkstraat 4", "zipcode": "1097 BC", "null": [""]}, {"title": "Gollem's Proeflokaal", "adres": "Overtoom 160-162", "zipcode": "1054 HP", "null": [""]}, {"title": "Ron Gastrobar", "adres": "Sophialaan 55HS", "zipcode": "1075 BP", "null": [""]}, {"title": "Assaggi", "adres": "Tweede Egelantiersdwstr 4-6", "zipcode": "1015 SC", "null": [""]}, {"title": "A La Ferme", "adres": "Govert Flinckstraat 251", "zipcode": "1073 BX", "null": [""]}, {"title": "Wissenkerke Sloterdijk", "adres": "Radarweg 236", "zipcode": "1043 NV", "null": [""]}, {"title": "Zazas", "adres": "Daniel Stalpertstraat 103", "zipcode": "1072 XD", "null": [""]}, {"title": "Bridges", "adres": "Oudezijds Voorburgwal 197", "zipcode": "1012 EX", "null": [""]}, {"title": "Mazzo", "adres": "Rozengracht 114", "zipcode": "1016 NH", "null": [""]}, {"title": "Restaurant Pica Pica", "adres": "Camperstraat 48-50", "zipcode": "1091 AH", "null": [""]}, {"title": "Bord'Eau", "adres": "Nieuwe Doelenstraat 2-14", "zipcode": "1012 CP", "null": [""]}, {"title": "Strandzuid", "adres": "Europaplein 22", "zipcode": "1078 GZ", "null": [""]}, {"title": "Barra", "adres": "Eerste Sweelinckstraat 23", "zipcode": "1073 CL", "null": [""]}, {"title": "Scossa", "adres": "Kattengat 1", "zipcode": "1012 SZ", "null": [""]}, {"title": "Midtown grill", "adres": "Stadhouderskade 12", "zipcode": "1054 ES", "null": [""]}, {"title": "Grolsch Cinecafe", "adres": "Arena boulevard 598", "zipcode": "1101 DS", "null": [""]}, {"title": "Grandcafe 3&20", "adres": "Arena boulevard 242", "zipcode": "1101 DJ", "null": [""]}, {"title": "Happyhappyjoyjoy East", "adres": "Oostelijke Handelskade 4", "zipcode": "1019 BM", "null": [""]}, {"title": "Restaurant Dolce Vita", "adres": "Warmoesstraat 10H", "zipcode": "1012 JD", "null": [""]}, {"title": "Lute", "adres": "De Oude Molen 5", "zipcode": "1184 VW", "null": [""]}, {"title": "Tanuki", "adres": "Pieter Lastmanweg 9", "zipcode": "1181 XG", "null": [""]}, {"title": "Het Jagershuis", "adres": "Amstelzijde 4", "zipcode": "1184 VA", "null": [""]}, {"title": "Aan de Poel", "adres": "Handweg 1", "zipcode": "1185 TS", "null": [""]}, {"title": "Voyager (Sheraton Schiphol)", "adres": "Schiphol Boulevard 101", "zipcode": "1118 BG", "null": [""]}, {"title": "De Kersentuin", "adres": "Dijsselhofplantsoen 7", "zipcode": "1077 BJ", "null": [""]}, {"title": "Restaurant Jaspers", "adres": "Ceintuurbaan 196", "zipcode": "1072 GC", "null": [""]}, {"title": "Restaurant Greetje", "adres": "Peperstraat 23-25", "zipcode": "1011 TJ", "null": [""]}, {"title": "Wilde Zwijnen", "adres": "Javaplein 23HS", "zipcode": "1095 CJ", "null": [""]}, {"title": "Restaurant de Struisvogel", "adres": "Keizersgracht 312", "zipcode": "1016 EX", "null": [""]}, {"title": "Los Pilones", "adres": "1e Anjeliersdwarsstraat 6", "zipcode": "1015 NR", "null": [""]}, {"title": "New King", "adres": "Zeedijk 115-117", "zipcode": "1012 AV", "null": [""]}, {"title": "Foodware", "adres": "Westerstraat 116", "zipcode": "1015 MN", "null": [""]}, {"title": "Akitsu", "adres": "Rozengracht 230", "zipcode": "1016 SZ", "null": [""]}, {"title": "Restaurant Bloemers", "adres": "Hemonystraat 70", "zipcode": "1074 BT", "null": [""]}, {"title": "Stamppotje", "adres": "Haarlemmerdijk 14", "zipcode": "1013 JC", "null": [""]}, {"title": "Hap-Hmm", "adres": "Eerste Helmersstraat 33", "zipcode": "1054 CZ", "null": [""]}, {"title": "Le Zinc et les Autres", "adres": "Prinsengracht 999", "zipcode": "1017 KM", "null": [""]}, {"title": "De Eetkamer van de Jordaan", "adres": "Westerstraat 76", "zipcode": "1015 ML", "null": [""]}, {"title": "Bo Cinq", "adres": "Lange Leidsedwarsstraat 53-59", "zipcode": "1017 NH", "null": [""]}, {"title": "Izakaya", "adres": "Albert Cuypstraat 2-6", "zipcode": "1072 CT", "null": [""]}, {"title": "Nepalese Restaurant Mt. Everest", "adres": "Spreeuwenpark 3", "zipcode": "1021 GS", "null": [""]}, {"title": "Restaurant De Vier Seizoenen", "adres": "Heereweg 224", "zipcode": "2161 BR", "null": [""]}, {"title": "Thais Restaurant LemonLeaf", "adres": "Plantsoenstraat 29", "zipcode": "1441 CW", "null": [""]}, {"title": "Mykonos", "adres": "Peperstraat 29", "zipcode": "1441 BH", "null": [""]}, {"title": "NeL", "adres": "Amstelveld 12", "zipcode": "1017 JD", "null": [""]}, {"title": "NRC Restaurant Caf\u00ef\u00bf\u00bd", "adres": "Rokin 65", "zipcode": "1012 KK", "null": [""]}, {"title": "Restaurant Vandaag", "adres": "Europaboulevard 1", "zipcode": "1079 PC", "null": [""]}, {"title": "Vuurtoreneiland", "adres": "Oostelijke Handelskade 34", "zipcode": "1019 BN", "null": [""]}, {"title": "Uit de Keuken", "adres": "Bellamystraat 2", "zipcode": "1052 BL", "null": [""]}, {"title": "Lastage", "adres": "Geldersekade 29", "zipcode": "1011 EJ", "null": [""]}, {"title": "Restaurant Vermeer", "adres": "Prins Hendrikkade 59-72", "zipcode": "1012 AD", "null": [""]}, {"title": "Da Portare Via", "adres": "Leliegracht 34", "zipcode": "1015 DG", "null": [""]}, {"title": "Caro Kookt", "adres": "Nieuwe Leliestraat 16A", "zipcode": "1015 SP", "null": [""]}, {"title": "Saskia?s huiskamerrestaurant", "adres": "Albert Cuypstraat 203", "zipcode": "1073 BE", "null": [""]}, {"title": "Eten bij mij", "adres": "Albert Cuypstraat 91", "zipcode": "1072 CP", "null": [""]}, {"title": "Marleen kookt", "adres": "diverse locaties / various locations", "zipcode": "1012 JS", "null": [""]}, {"title": "Marits huiskamerrestaurant", "adres": "Andreas Bonnstraat 34H", "zipcode": "1091 BA", "null": [""]}, {"title": "The Dutch Co.", "adres": "Frans Halsstraat 76", "zipcode": "1072 BV", "null": [""]}, {"title": "La Cantinetta Wine&Pasta", "adres": "De Clercqstraat 105", "zipcode": "1053 AH", "null": [""]}, {"title": "Sla", "adres": "Ceintuurbaan 149", "zipcode": "1072 GB", "null": [""]}, {"title": "Noara's Restaurant en Lounge", "adres": "Muiderstraat 18", "zipcode": "1011 RB", "null": [""]}, {"title": "Eat Your Heart Out", "adres": "Herengracht 314", "zipcode": "1016 CD", "null": [""]}, {"title": "Kookerij de Singel", "adres": "Singel 317sous", "zipcode": "1012 WJ", "null": [""]}, {"title": "De Uitvreter", "adres": "Hazenstraat 19", "zipcode": "1016 SM", "null": [""]}, {"title": "Vondelpark3", "adres": "Vondelpark 3", "zipcode": "1071 AA", "null": [""]}, {"title": "Greenwoods", "adres": "Singel 103", "zipcode": "1012 VG", "null": [""]}, {"title": "Omelegg", "adres": "Ferdinand Bolstraat 143", "zipcode": "1072 LH", "null": [""]}, {"title": "Trust", "adres": "Albert Cuypstraat 210", "zipcode": "1073 BM", "null": [""]}, {"title": "Dijkers eten & drinken", "adres": "Warmoesstraat 5-7", "zipcode": "2011 HN", "null": [""]}, {"title": "De Jopenkerk", "adres": "Gedempte Voldersgracht 2", "zipcode": "2011 WD", "null": [""]}, {"title": "Brasserie Nobel", "adres": "Spaarne 36", "zipcode": "2011 CJ", "null": [""]}, {"title": "Herberg De Compagnie", "adres": "Spoorstraat 10-14", "zipcode": "1601 GG", "null": [""]}, {"title": "De Mastenbar", "adres": "Compagnieshaven 3", "zipcode": "1601 ZA", "null": [""]}, {"title": "Orangerie Elswout", "adres": "Elswoutslaan 22", "zipcode": "2051 AE", "null": [""]}, {"title": "De Vier Seizoenen", "adres": "Heereweg 224", "zipcode": "2161 BR", "null": [""]}, {"title": "Librije?s Zusje", "adres": "Herengracht 542-556", "zipcode": "1017 CG", "null": [""]}, {"title": "Vinnies", "adres": "Haarlemmerstraat 46", "zipcode": "1013 ES", "null": [""]}, {"title": "Snappers", "adres": "Reguliersdwarsstraat 21", "zipcode": "1017 BJ", "null": [""]}, {"title": "The Butcher", "adres": "Albert Cuypstraat 129", "zipcode": "1072 CS", "null": [""]}, {"title": "Pata Negra", "adres": "Utrechtsestraat 124", "zipcode": "1017 VT", "null": [""]}, {"title": "Brasserie Bark", "adres": "Van Baerlestraat 120", "zipcode": "1071 BD", "null": [""]}, {"title": "Brasserie Nacional", "adres": "Kleine-Gartmanplantsoen 11", "zipcode": "1017 RP", "null": [""]}, {"title": "Salsa Shop", "adres": "Amstelstraat 32", "zipcode": "1017 DA", "null": [""]}, {"title": "The Gastro.bar", "adres": "Sumatrakade 613", "zipcode": "1019 PS", "null": [""]}, {"title": "De Silveren Spiegel", "adres": "Kattengat 4-6", "zipcode": "1012 SZ", "null": [""]}, {"title": "BUFFET van Odette", "adres": "Prinsengracht 598", "zipcode": "1017 KS", "null": [""]}, {"title": "Bar Brandstof", "adres": "Marnixstraat 341", "zipcode": "1016 TD", "null": [""]}, {"title": "Restaurant Spelt", "adres": "Nieuwe Spiegelstraat 5A", "zipcode": "1017 DB", "null": [""]}, {"title": "T eten & drinken", "adres": "Roetersstraat 4HS", "zipcode": "1018 WC", "null": [""]}, {"title": "THT", "adres": "IJpromenade 2", "zipcode": "1031 KT", "null": [""]}, {"title": "Maslow", "adres": "Carolina MacGillavrylaan 3198", "zipcode": "1098 XK", "null": [""]}, {"title": "STEK", "adres": "Wibautstraat 95-97", "zipcode": "1091 GK", "null": [""]}, {"title": "Bojo", "adres": "Lange Leidsedwarsstraat", "zipcode": "1017 NG", "null": [""]}, {"title": "63graden Foodbar", "adres": "Woestduinstraat 63", "zipcode": "1058 TB", "null": [""]}, {"title": "Rosa & Rita", "adres": "Oostenburgereiland - Conradstraat 471", "zipcode": "1018 NE", "null": [""]}, {"title": "Rijsel", "adres": "Marcusstraat 52", "zipcode": "1091 TK", "null": [""]}, {"title": "Restaurant Red", "adres": "Keizersgracht 594", "zipcode": "1017 EN", "null": [""]}, {"title": "Morlang", "adres": "Keizersgracht 451", "zipcode": "1017 DK", "null": [""]}, {"title": "Aan de Amstel", "adres": "Weesperzijde 42a", "zipcode": "1091 EE", "null": [""]}, {"title": "Lazagne", "adres": "Frederik Hendrikplnts 21h", "zipcode": "1052 XP", "null": [""]}, {"title": "CT Coffee & Coconuts", "adres": "Ceintuurbaan 282-284", "zipcode": "1072 GK", "null": [""]}, {"title": "De Ysbreeker", "adres": "Weesperzijde 23", "zipcode": "1091 EC", "null": [""]}, {"title": "Hummbar", "adres": "Utrechtsestraat 111", "zipcode": "1017 VH", "null": [""]}, {"title": "REM Eiland", "adres": "Haparandadam 45", "zipcode": "1013 AK", "null": [""]}, {"title": "Caf\u00ef\u00bf\u00bd Panache", "adres": "Ten Katestraat 117", "zipcode": "1053 CC", "null": [""]}, {"title": "Restaurant As", "adres": "Prinses Irenestraat 19", "zipcode": "1077 WT", "null": [""]}, {"title": "Little Collins", "adres": "Eerste Sweelinckstraat 19F", "zipcode": "1073 CL", "null": [""]}, {"title": "Citro\u00ef\u00bf\u00bdn Restaurant", "adres": "Stadionplein 22-24", "zipcode": "1076 CM", "null": [""]}, {"title": "NEIGHBOURS", "adres": "Frans Halsstraat 26H", "zipcode": "1072 BR", "null": [""]}, {"title": "Graceland BAR-B-Q", "adres": "Jan van Galenstraat 8", "zipcode": "1051 KM", "null": [""]}, {"title": "Flair Culinair Cook & Dine Concept", "adres": "Achtergracht 15", "zipcode": "1017 WL", "null": [""]}, {"title": "Caf\u00ef\u00bf\u00bd Kieb\u00ef\u00bf\u00bdrt", "adres": "Marathonweg 2", "zipcode": "1076 TE", "null": [""]}, {"title": "Pinxobar", "adres": "IJburglaan 500", "zipcode": "1087 BT", "null": [""]}, {"title": "Voldaan", "adres": "Jan Pieter Heijestraat 121", "zipcode": "1054 ME", "null": [""]}, {"title": "Mother India", "adres": "Ter Haarstraat 14", "zipcode": "1053 LJ", "null": [""]}, {"title": "Terpentijn", "adres": "Rokin 103", "zipcode": "1012 KM", "null": [""]}, {"title": "Dophert", "adres": "Spaarndammerstraat", "zipcode": "1013 ST", "null": [""]}, {"title": "Hendrix", "adres": "De Clercqstraat", "zipcode": "1052 NK", "null": [""]}, {"title": "MOS Amsterdam", "adres": "IJdok 185", "zipcode": "1013 MM", "null": [""]}, {"title": "manamana", "adres": "Eerste Jan Steenstraat 85", "zipcode": "1072 NE", "null": [""]}, {"title": "Vijfnulvijf", "adres": "Insulindeweg 505", "zipcode": "1094 MK", "null": [""]}, {"title": "Bistro Zuidlande", "adres": "Nova Zemblastraat 586", "zipcode": "1013 RP", "null": [""]}, {"title": "Caf\u00ef\u00bf\u00bd Modern", "adres": "Meidoornweg 2", "zipcode": "1031 GG", "null": [""]}, {"title": "The Harbour Club Kitchen", "adres": "Apollolaan 2", "zipcode": "1077 BA", "null": [""]}, {"title": "Ron Gastrobar Oriental", "adres": "Kerkstraat 23", "zipcode": "1017 GA", "null": [""]}, {"title": "BAK", "adres": "Van Diemenkade 410", "zipcode": "1013 CR", "null": [""]}, {"title": "Hannekes Boom", "adres": "Dijksgracht 4", "zipcode": "1019 BS", "null": [""]}, {"title": "DWDD pop-up restaurant", "adres": "Pazzanistraat 8", "zipcode": "1014 DB", "null": [""]}, {"title": "The Pantry", "adres": "Leidsekruisstraat 21", "zipcode": "1017 RE", "null": [""]}, {"title": "Caf\u00ef\u00bf\u00bd de Paris", "adres": "Rokin / Nes 96    81/83", "zipcode": "1012 KJ", "null": [""]}, {"title": "Restaurant C", "adres": "Wibautstraat 125", "zipcode": "1091 GL", "null": [""]}, {"title": "Gin Neo", "adres": "Noorderstraat 19-23", "zipcode": "1017 TR", "null": [""]}, {"title": "Gustafson Amsterdam", "adres": "Haarlemmerweg 8A", "zipcode": "1014 BE", "null": [""]}, {"title": "Lion Noir", "adres": "Reguliersdwarsstraat 28", "zipcode": "1017 BM", "null": [""]}, {"title": "Dok", "adres": "Moermanskkade 71", "zipcode": "1013 BC", "null": [""]}, {"title": "Guts & Glory", "adres": "Utrechtsestraat 6", "zipcode": "1017 VN", "null": [""]}, {"title": "Roomservice at Olof's", "adres": "Zeedijk 2a", "zipcode": "1012 AX", "null": [""]}, {"title": "Kaagman & Kortekaas", "adres": "Sint Nicolaasstraat", "zipcode": "1012 NJ", "null": [""]}, {"title": "Moon", "adres": "Overhoeksplein 1", "zipcode": "1031 KS", "null": [""]}, {"title": "YAY Health Store & More", "adres": "Gerard Doustraat", "zipcode": "1072 VV", "null": [""]}, {"title": "Hangar", "adres": "Aambeeldstraat 36", "zipcode": "1021 KB", "null": [""]}, {"title": "Happyhappyjoyjoy West", "adres": "Bilderdijkstraat 158 hs", "zipcode": "1053 LC", "null": [""]}, {"title": "Hummus Bistro d&a", "adres": "Westerstraat 136", "zipcode": "1015 MP", "null": [""]}, {"title": "Fou Fow Ramen", "adres": "Elandsgracht 2A", "zipcode": "1016 TV", "null": [""]}, {"title": "Zouthaven", "adres": "Piet Heinkade 1", "zipcode": "1019 BR", "null": [""]}, {"title": "Castell", "adres": "Lijnbaansgracht 252-254", "zipcode": "1017 RK", "null": [""]}, {"title": "Caf\u00ef\u00bf\u00bd DS", "adres": "Dr Jan van Breemenstraat 1", "zipcode": "1056 AB", "null": [""]}, {"title": "Eastside Amsterdam", "adres": "Sumatrastraat 47", "zipcode": "1094 LN", "null": [""]}, {"title": "Waterkant", "adres": "Marnixstraat 246", "zipcode": "1016 TL", "null": [""]}, {"title": "Smokin' Barrels", "adres": "Beukenplein 22", "zipcode": "1091 KH", "null": [""]}, {"title": "Ibis", "adres": "Weesperzijde 43", "zipcode": "1091 EE", "null": [""]}, {"title": "Restaurant CHI", "adres": "Amstelveenseweg 128", "zipcode": "1075 XL", "null": [""]}, {"title": "Restaurant Bidou", "adres": "Beukenplein 19-21", "zipcode": "1092 BB", "null": [""]}, {"title": "Pension Homeland", "adres": "Kattenburgerstraat 5", "zipcode": "1018 JA", "null": [""]}, {"title": "Nam Kee", "adres": "Geldersekade 117", "zipcode": "1011 EN", "null": [""]}, {"title": "Mr Porter", "adres": "Spuistraat 175", "zipcode": "1012 VN", "null": [""]}, {"title": "Mozo", "adres": "Van Woustraat 89", "zipcode": "1074 AE", "null": [""]}, {"title": "Thrill Grill", "adres": "Gerard Doustraat 98", "zipcode": "1072 VX", "null": [""]}, {"title": "Geflipt", "adres": "Van Woustraat 15", "zipcode": "1074 AA", "null": [""]}, {"title": "De Rotisserie", "adres": "De Clercqstraat 81", "zipcode": "1053 AG", "null": [""]}, {"title": "Dim Sum Now", "adres": "Ferdinand Bolstraat 36", "zipcode": "1072 LK", "null": [""]}, {"title": "The Pool", "adres": "Wibautstraat 131A", "zipcode": "1091 GL", "null": [""]}, {"title": "World of Food", "adres": "Develstein", "zipcode": "1102 AK", "null": [""]}, {"title": "Frits", "adres": "Jan Evertsenstraat", "zipcode": "1057 BV", "null": [""]}, {"title": "Burgerbar", "adres": "Warmoesstraat 21", "zipcode": "1012 HT", "null": [""]}, {"title": "Cannibale Royale", "adres": "Handboogstraat 17A", "zipcode": "1012 XM", "null": [""]}, {"title": "Breda", "adres": "Singel 210", "zipcode": "1016 AB", "null": [""]}, {"title": "Restaurant DS", "adres": "Dr Jan van Breemenstraat 3", "zipcode": "1056 AB", "null": [""]}, {"title": "SNCKBR", "adres": "Van Woustraat 34-36", "zipcode": "1073 LM", "null": [""]}, {"title": "Jansz", "adres": "Reestraat 8", "zipcode": "1016 DN", "null": [""]}, {"title": "Luitenant Cornelis", "adres": "Voetboogstraat 15", "zipcode": "1012 XK", "null": [""]}, {"title": "Bar Basquiat", "adres": "Javastraat 90", "zipcode": "1094 HM", "null": [""]}, {"title": "ICHI-E", "adres": "Arena boulevard 175", "zipcode": "1101 EJ", "null": [""]}, {"title": "Spaghetteria", "adres": "Jan Hanzenstraat 32", "zipcode": "1053 SR", "null": [""]}, {"title": "Restaurant Brooklyn", "adres": "NDSM-plein 30", "zipcode": "1033 WB", "null": [""]}, {"title": "Calle Ocho", "adres": "Albert Cuypstraat 226", "zipcode": "1073 BN", "null": [""]}, {"title": "Wilde Westen Amsterdam", "adres": "Bos en Lommerplantsoen 1", "zipcode": "1055 AA", "null": [""]}, {"title": "Badhuis Javaplein", "adres": "Javaplein 21", "zipcode": "1095 CJ", "null": [""]}, {"title": "Razmataz", "adres": "Hugo de Grootplein 7-15", "zipcode": "1052 KV", "null": [""]}, {"title": "Peperwortel", "adres": "Overtoom 140", "zipcode": "1054 HN", "null": [""]}, {"title": "Elkaar", "adres": "Alexanderplein 6", "zipcode": "1018 CG", "null": [""]}, {"title": "Grand caf\u00ef\u00bf\u00bd de Tropen", "adres": "Linnaeusstraat", "zipcode": "1092 CK", "null": [""]}, {"title": "Carter Bar & Kitchen", "adres": "Valeriusstraat 85 huis", "zipcode": "1071 MG", "null": [""]}, {"title": "De Japanner", "adres": "Albert Cuypstraat 228", "zipcode": "1073 BN", "null": [""]}, {"title": "John Dory", "adres": "Prinsengracht 999", "zipcode": "1017 KM", "null": [""]}, {"title": "The Meets", "adres": "Cornelis Troostplein 3", "zipcode": "1072 JJ", "null": [""]}, {"title": "Janz.", "adres": "Reestraat 8", "zipcode": "1016 DN", "null": [""]}, {"title": "Restaurant Villa Maria", "adres": "Lange Leidsedwarsstraat 45", "zipcode": "1017 NG", "null": [""]}, {"title": "Mchi Mood Food & Drinks", "adres": "IJburglaan 1295", "zipcode": "1087 JJ", "null": [""]}, {"title": "Braai", "adres": "Schinkelhavenkade 1", "zipcode": "1075 VS", "null": [""]}, {"title": "DIS", "adres": "Haarlemmerplein", "zipcode": "1013 HR", "null": [""]}, {"title": "Van 't Spit", "adres": "De Clercqstraat 95", "zipcode": "1053 AH", "null": [""]}, {"title": "Graham's Kitchen", "adres": "Hemonystraat 38", "zipcode": "1074 BS", "null": [""]}, {"title": "Bajesdorp", "adres": "H.J.E. Wenckebachweg 36", "zipcode": "1096 AN", "null": [""]}, {"title": "Renato's Osteria", "adres": "Van der Helstplein 10", "zipcode": "1072 PH", "null": [""]}, {"title": "Hoofdstad Brasserie", "adres": "Nieuwe Doelenstraat 2-14", "zipcode": "1012 CP", "null": [""]}, {"title": "Saravana Bhavan", "adres": "Stadhouderskade 123", "zipcode": "1074 AV", "null": [""]}, {"title": "Ter Marsch & Co", "adres": "Vijzelstraat 4", "zipcode": "1017 HK", "null": [""]}, {"title": "Bistro Baret", "adres": "Korte Amstelstraat 18", "zipcode": "1018 XS", "null": [""]}, {"title": "La Cage Amsterdam", "adres": "Reguliersdwarsstraat 44", "zipcode": "1017 BM", "null": [""]}, {"title": "The White Room", "adres": "Dam 9", "zipcode": "1012 JS", "null": [""]}, {"title": "Taqueria Tacobar", "adres": "Tweede Helmersstraat 26", "zipcode": "1054 CJ", "null": [""]}, {"title": "The Seafood Market", "adres": "Ferdinand Bolstraat 32", "zipcode": "1072 LK", "null": [""]}, {"title": "Chiapas Taco Kartel", "adres": "Van Woustraat 29hs", "zipcode": "1074 AB", "null": [""]}, {"title": "Thijs", "adres": "Prinsengracht 438", "zipcode": "1017 KE", "null": [""]}, {"title": "Scheepskameel", "adres": "Kattenburgerstraat 7", "zipcode": "1018 JA", "null": [""]}, {"title": "Bistro Bij Ons", "adres": "Prinsengracht 287", "zipcode": "1016 GW", "null": [""]}, {"title": "Huis van Lopez", "adres": "De Clercqstraat 56", "zipcode": "1052 NH", "null": [""]}, {"title": "Salsa Shop CS", "adres": "Amstelstraat 43L", "zipcode": "1017 DA", "null": [""]}, {"title": "Oma Ietje", "adres": "Heesterveld 3", "zipcode": "1102 SB", "null": [""]}, {"title": "De Italiaan", "adres": "Bosboom Toussaintstraat 29", "zipcode": "1054 AN", "null": [""]}, {"title": "Betty's", "adres": "Rijnstraat 75", "zipcode": "1079 GX", "null": [""]}, {"title": "De Kleine Valk", "adres": "Marie Heinekenplein 7", "zipcode": "1072 MH", "null": [""]}, {"title": "DeShima", "adres": "Weteringschans", "zipcode": "1017 RX", "null": [""]}, {"title": "Lotti's Bar and Grill", "adres": "Herengracht 255", "zipcode": "1016 BJ", "null": [""]}, {"title": "Mystique", "adres": "Utrechtsestraat 30-A", "zipcode": "1017 VN", "null": [""]}, {"title": "Meneer De Wit Heeft Honger", "adres": "Witte de Withstraat 10", "zipcode": "1057 XV", "null": [""]}, {"title": "Yokiyo", "adres": "Insulindeweg 1", "zipcode": "1094 NW", "null": [""]}, {"title": "Visbar Beet", "adres": "Dapperstraat 26", "zipcode": "1093 BW", "null": [""]}, {"title": "Wolf Atelier", "adres": "Westerdok 20", "zipcode": "1013 AZ", "null": [""]}, {"title": "The Fish Toko", "adres": "Westerstraat 264", "zipcode": "1015 MT", "null": [""]}, {"title": "Mr. & Mrs.", "adres": "Lange Veerstraat  4", "zipcode": "2011 DB", "null": [""]}, {"title": "Cafe Collette", "adres": "Oude Groenmarkt 22", "zipcode": "2011 HL", "null": [""]}, {"title": "The Louisiana", "adres": "Zijlstraat 21", "zipcode": "2011 TJ", "null": [""]}, {"title": "Table 24", "adres": "Oude Groenmarkt 24", "zipcode": "2011 HL", "null": [""]}, {"title": "Staal", "adres": "Gedempte Oude Gracht 46", "zipcode": "2011 GS", "null": [""]}, {"title": "Specktakel", "adres": "Spekstraat 4", "zipcode": "2011 HM", "null": [""]}, {"title": "Truffels", "adres": "Lange Veerstraat 45", "zipcode": "2011 DA", "null": [""]}, {"title": "The Happy Pig Pancake Shop", "adres": "Rosmarijnsteeg 12", "zipcode": "1012 RP", "null": [""]}, {"title": "Pok\u00ef\u00bf\u00bd Perfect", "adres": "Prinsengracht 502", "zipcode": "1017 KH", "null": [""]}, {"title": "Swych", "adres": "Nieuwe Doelenstraat 26", "zipcode": "1012 CP", "null": [""]}, {"title": "Jacobsz", "adres": "Ringdijk 1", "zipcode": "1097 AB", "null": [""]}, {"title": "Auberge Jean & Marie", "adres": "Albert Cuypstraat 58-60", "zipcode": "1072 CV", "null": [""]}, {"title": "Oriental City", "adres": "Oudezijds Voorburgwal 177-179", "zipcode": "1012 EV", "null": [""]}, {"title": "Goodies", "adres": "Huidenstraat 9", "zipcode": "1016 ER", "null": [""]}, {"title": "La Perla", "adres": "Tweede Tuindwarsstraat 14", "zipcode": "1015 RZ", "null": [""]}, {"title": "La Falote", "adres": "Roelof Hartstraat 26", "zipcode": "1071 VJ", "null": [""]}, {"title": "De Pizzabakkers", "adres": "Plantage Kerklaan 2", "zipcode": "1018 TA", "null": [""]}, {"title": "Skek", "adres": "Zeedijk 4-8", "zipcode": "1012 AX", "null": [""]}, {"title": "Salmuera", "adres": "Rozengracht 106-H", "zipcode": "1016 NH", "null": [""]}, {"title": "Adam & Siam", "adres": "Rokin 93", "zipcode": "1012 KM", "null": [""]}, {"title": "Restaurant Classico", "adres": "Willemsparkweg 87", "zipcode": "1071 GT", "null": [""]}, {"title": "Blue Boy", "adres": "Spuistraat 3GH", "zipcode": "1012 SP", "null": [""]}, {"title": "H. Burger", "adres": "De Clercqstraat 128H", "zipcode": "1052 NP", "null": [""]}, {"title": "Olie & Zo", "adres": " Eten & Drinken", "zipcode": "Conradstraat 142", "null": ["930932"]}, {"title": "Park", "adres": "'s-Gravesandestraat 55", "zipcode": "1092 AA", "null": [""]}, {"title": "Dum Dum Palace", "adres": "Zeedijk 37", "zipcode": "1012 AR", "null": [""]}, {"title": "Ramen-Ya", "adres": "Oudezijds Voorburgwal 236", "zipcode": "1012 GK", "null": [""]}, {"title": "Woo Bros", "adres": "Jodenbreestraat 144", "zipcode": "1011 NS", "null": [""]}, {"title": "Bo Nam", "adres": "Lange Leidsedwarsstraat 53-59", "zipcode": "1017 NH", "null": [""]}, {"title": "Caf\u00ef\u00bf\u00bd Amoi", "adres": "Kinkerstraat 53", "zipcode": "1053 DE", "null": [""]}, {"title": "Ciro 1939", "adres": "Maasstraat 105", "zipcode": "1078 HH", "null": [""]}, {"title": "Mama Dough", "adres": "Beukenplein 21", "zipcode": "1092 BB", "null": [""]}, {"title": "Fuoco Vivo", "adres": "De Clercqstraat 12", "zipcode": "1052 NC", "null": [""]}, {"title": "Il Sogno", "adres": "Koningsstraat 19", "zipcode": "1011 ET", "null": [""]}, {"title": "Pazzi", "adres": "De Clercqstraat 93", "zipcode": "1053 AG", "null": [""]}, {"title": "The Roast Room", "adres": "Europaplein 2", "zipcode": "1078 GZ", "null": [""]}, {"title": "La Estancia Argentinian Grill Restaurant", "adres": "Reguliersdwarsstraat 86", "zipcode": "1017 BN", "null": [""]}, {"title": "Grill Steakhouse Maya", "adres": "Korte Leidsedwarsstraat 111", "zipcode": "1017 PX", "null": [""]}, {"title": "Indian Restaurant Ganesha", "adres": "Geldersekade 5 H", "zipcode": "1011 EH", "null": [""]}, {"title": "Caf\u00ef\u00bf\u00bd Caron", "adres": "Frans Halsstraat 28", "zipcode": "1072 BS", "null": [""]}, {"title": "Bolenius", "adres": "George Gershwinlaan 30", "zipcode": "1082 MT", "null": [""]}, {"title": "De Kruidfabriek by Lute", "adres": "De Oude Molen 5", "zipcode": "1184 VW", "null": [""]}, {"title": "Bistrot des Alpes", "adres": "Utrechtsedwarsstraat 141", "zipcode": "1017 WE", "null": [""]}, {"title": "Halvemaan", "adres": "Van Leijenberghlaan 320", "zipcode": "1082 DD", "null": [""]}, {"title": "The French Connection", "adres": "Singel 460", "zipcode": "1017 AW", "null": [""]}, {"title": "Rooftop Restaurant Bureau", "adres": "Johan Huizingalaan 763a", "zipcode": "1066 VH", "null": [""]}, {"title": "Dignita", "adres": "Koninginneweg 218 hs", "zipcode": "1075 EL", "null": [""]}, {"title": "Market 33", "adres": "Claude Debussylaan 33", "zipcode": "1082 MC", "null": [""]}, {"title": "Spirit Amsterdam", "adres": "Czaar Peterstraat 2a", "zipcode": "1018 PR", "null": [""]}, {"title": "Sushito", "adres": "1e van der Helststraat 74", "zipcode": "1072 NZ", "null": [""]}, {"title": "Yumler", "adres": "Jan Evertsenstraat 747", "zipcode": "1061 XZ", "null": [""]}, {"title": "D'Vijf Broers", "adres": "Lagedijk 32-34", "zipcode": "1544 BG", "null": [""]}, {"title": "Caf\u00ef\u00bf\u00bd Fabriek", "adres": "Jan Sijbrandsteeg 12", "zipcode": "1502 BA", "null": [""]}, {"title": "Restaurant L'Hirondelle", "adres": "Boslaan 7", "zipcode": "2132 RJ", "null": [""]}, {"title": "Restaurant Grand Cafe Applaus", "adres": "Agorabaan 14", "zipcode": "8224 JS", "null": [""]}, {"title": "Het Wapen van Aalsmeer", "adres": "Dorpsstraat 15", "zipcode": "1431 CA", "null": [""]}, {"title": "Restaurant De Wintertuin", "adres": "Sloterweg 299", "zipcode": "1171 VB", "null": [""]}, {"title": "Restaurant Gusto", "adres": "Kruisweg 495", "zipcode": "2132 NA", "null": [""]}, {"title": "NaangNuan", "adres": "Noordeinde 46", "zipcode": "1141 AN", "null": [""]}, {"title": "Bar & Restaurant Puur Saen", "adres": "Aan de Vaart 1", "zipcode": "1506 TW", "null": [""]}, {"title": "Westeinder Paviljoen", "adres": "Kudelstaartseweg 22", "zipcode": "1431 GA", "null": [""]}, {"title": "Bistro Belle", "adres": "Dorpsstraat 12", "zipcode": "3611 AE", "null": [""]}, {"title": "De Wegwijzer", "adres": "Kanaaldijk 27", "zipcode": "1454 AA", "null": [""]}, {"title": "Restaurant Bonsai", "adres": "Zaanweg 22-23", "zipcode": "1521 DK", "null": [""]}, {"title": "Het Hart van Weesp", "adres": "Herengracht 35", "zipcode": "1382 AH", "null": [""]}, {"title": "Restaurant Het Oude Dykhuys", "adres": "Lisserdijk 567", "zipcode": "2165 AL", "null": [""]}, {"title": "Japans Restaurant Senbazuru", "adres": "Arnolduspark 10", "zipcode": "2132 CR", "null": [""]}, {"title": "Pancho's Cantina", "adres": "Rozengracht 20-21", "zipcode": "1506 SC", "null": [""]}, {"title": "Restaurant De Gier & De Krijger", "adres": "Oosteinde 46", "zipcode": "1474 MC", "null": [""]}, {"title": "De Hoop Op d'Swarte Walvis", "adres": "Kalverringdijk 15", "zipcode": "1509 BT", "null": [""]}, {"title": "Oude Molen", "adres": "Madeliefstraat 1", "zipcode": "2153 EW", "null": [""]}, {"title": "De Brasserie", "adres": "Venneperweg 471", "zipcode": "2153 AD", "null": [""]}, {"title": "Magnolia's Hampshire Golfhotel", "adres": "Westerweg 60", "zipcode": "1445 AD", "null": [""]}, {"title": "Van der Valk Hotel Volendam", "adres": "Wagenweg 1", "zipcode": "1145 PW", "null": [""]}, {"title": "Apollo Hotel Lelystad", "adres": "Agoraweg 11", "zipcode": "8224 BZ", "null": [""]}, {"title": "Restaurant van den Hogen", "adres": "Haven 106", "zipcode": "1131 EV", "null": [""]}, {"title": "Restaurant de Waegh", "adres": "Middendam 5-7", "zipcode": "1141 BC", "null": [""]}, {"title": "Restaurant Het Oude Spoorhuis", "adres": "Stationsstraat 41-43-45", "zipcode": "1421 AA", "null": [""]}, {"title": "Het Heerenhuis Beemster", "adres": "Rijperweg 83", "zipcode": "1462 MD", "null": [""]}, {"title": "Restaurant Hof van Holland", "adres": "Lingerzijde 69", "zipcode": "1135 AN", "null": [""]}, {"title": "Restaurant Four Seasons", "adres": "Haringburgwal 3", "zipcode": "1141 AT", "null": [""]}, {"title": "Restaurant Partycentrum De Jagersplas", "adres": "Kuilpad 1", "zipcode": "1509 AS", "null": [""]}, {"title": "De Boffert familierestaurant", "adres": "Weidelandpad 3", "zipcode": "1448 MB", "null": [""]}, {"title": "Het wapen van Middelie", "adres": "Brink 1", "zipcode": "1472 GB", "null": [""]}, {"title": "Palingrokerij Smit Bokkum", "adres": "Slobbeland 19", "zipcode": "1131 AA", "null": [""]}, {"title": "Old School", "adres": "Gaasterlandstraat 3-5", "zipcode": "1079 RH", "null": [""]}, {"title": "Mr. & Mrs. Watson", "adres": "Linnaeusstraat 70-2", "zipcode": "1092 CN", "null": [""]}, {"title": "Sir Hummus", "adres": "Van der Helstplein", "zipcode": "1072 PH", "null": [""]}, {"title": "Hotel Restaurant Het Rechthuis", "adres": "Googweg 1", "zipcode": "1399 EP", "null": [""]}, {"title": "CornelisZ", "adres": "Vaarboom 1", "zipcode": "1271 GM", "null": [""]}, {"title": "Selma's", "adres": "Jan van Galenstraat 70", "zipcode": "1056 CC", "null": [""]}, {"title": "Bar Loulou", "adres": "Kwakersplein", "zipcode": "1053 TZ", "null": [""]}, {"title": "Toko Boemboe Bali", "adres": "Haven 11", "zipcode": "1141 AZ", "null": [""]}, {"title": "De Verkeerde Wereld", "adres": "Buurterstraat 20", "zipcode": "1156 AS", "null": [""]}, {"title": "Caf\u00ef\u00bf\u00bd-Restaurant Land en Zeezicht", "adres": "Havenbuurt 6", "zipcode": "1156 AL", "null": [""]}, {"title": "Simpel", "adres": "Ferdinand Bolstraat 11", "zipcode": "1072 LA", "null": [""]}, {"title": "Tunes Bar", "adres": "Van Baerlestraat 27", "zipcode": "1071 AN", "null": [""]}, {"title": "RIJKS", "adres": "Museumstraat 2", "zipcode": "1071 XX", "null": [""]}, {"title": "Volt", "adres": "Ferdinand Bolstraat 178", "zipcode": "1072 LT", "null": [""]}, {"title": "Supermercado", "adres": "Amstelveenseweg 192", "zipcode": "1075 XR", "null": [""]}, {"title": "BAUT", "adres": "Paradijsplein 1", "zipcode": "1093 NJ", "null": [""]}, {"title": "Seafood Bar Van Baerlestraat", "adres": "Van Baerlestraat 5", "zipcode": "1071 AL", "null": [""]}, {"title": "Julius Bar&Grill", "adres": "Ceintuurbaan 256-260", "zipcode": "1072 GH", "null": [""]}, {"title": "De Knijp", "adres": "Van Baerlestraat 134", "zipcode": "1071 BD", "null": [""]}, {"title": "Conservatorium Brasserie", "adres": "Van Baerlestraat 27", "zipcode": "1071 AN", "null": [""]}, {"title": "Taiko", "adres": "Van Baerlestraat 27", "zipcode": "1071 AN", "null": [""]}, {"title": "Caf\u00ef\u00bf\u00bd-restaurant De Plantage", "adres": "Plantage Kerklaan 36", "zipcode": "1018 CZ", "null": [""]}, {"title": "Rolling Rock Kitchen", "adres": "Distelweg 113", "zipcode": "1031 HD", "null": [""]}, {"title": "Il Pecorino", "adres": "Van der Pekplein 11", "zipcode": "1031 GZ", "null": [""]}, {"title": "De IJ-keuken", "adres": "Koperslagerij  51", "zipcode": "1021 NJ", "null": [""]}, {"title": "Restaurant Sinne", "adres": "Ceintuurbaan 342", "zipcode": "1072 GP", "null": [""]}, {"title": "Pho 91", "adres": "Albert Cuypstraat 91", "zipcode": "1072 CP", "null": [""]}, {"title": "The Fat Dog", "adres": "Ruysdaelkade 251", "zipcode": "1072 AX", "null": [""]}, {"title": "La Rive", "adres": "Professor Tulpplein 1", "zipcode": "1018 GX", "null": [""]}, {"title": "Rotisserie East", "adres": "Beukenplein 17", "zipcode": "1092 BA", "null": [""]}, {"title": "Meatless District", "adres": "Bilderdijkstraat 65-67hs", "zipcode": "1053 KM", "null": [""]}, {"title": "NEST", "adres": "Eerste Ringdijkstraat 4", "zipcode": "1097 BC", "null": [""]}, {"title": "Bar James", "adres": "Javastraat 49", "zipcode": "1094 HA", "null": [""]}, {"title": "Bulls and Dogs", "adres": "Van Woustraat 58", "zipcode": "1073 LN", "null": [""]}, {"title": "Louie Louie", "adres": "Linnaeusstraat 11", "zipcode": "1093 EC", "null": [""]}, {"title": "Stork", "adres": "Gedempt Hamerkanaal t.o. 96", "zipcode": "1021 KR", "null": [""]}, {"title": "The Walrus & The Carpenter", "adres": "Javastraat 40", "zipcode": "1094 HJ", "null": [""]}, {"title": "Soi74", "adres": "Van Woustraat 74", "zipcode": "1073 LP", "null": [""]}, {"title": "Borrl Kitchen", "adres": "Plantage Kerklaan 41", "zipcode": "1018 CV", "null": [""]}, {"title": "Boi Boi", "adres": "Dapperstraat 12", "zipcode": "1093 BV", "null": [""]}, {"title": "Restaurant Moer", "adres": "Amstelveenseweg 7", "zipcode": "1054 MB", "null": [""]}, {"title": "Cosy by Mandy", "adres": "Leidsekruisstraat  26", "zipcode": "1017 RJ", "null": [""]}, {"title": "Mossel & Gin", "adres": "Gosschalklaan 12", "zipcode": "1014 DC", "null": [""]}, {"title": "Meneer Nieges", "adres": "Westerdoksdijk 40", "zipcode": "1013 AE", "null": [""]}, {"title": "Wilde Kroketten", "adres": "Danzigerkade 27", "zipcode": "1013 AP", "null": [""]}, {"title": "Villa Westend", "adres": "Westlaan 41", "zipcode": "1991 AL", "null": [""]}, {"title": "Buitenhuis", "adres": "Oostbroekerweg 17", "zipcode": "1981 LR", "null": [""]}, {"title": "Restaurant Kop van Haven", "adres": "Sluisplein 80", "zipcode": "1975 AG", "null": [""]}, {"title": "De Vrienden van Jacob", "adres": "Duin en kruidbergerweg 60", "zipcode": "2071 LE", "null": [""]}, {"title": "Brasserie DenK", "adres": "Duin en Kruidbergerweg 60", "zipcode": "2071 LE", "null": [""]}, {"title": "Restaurant Gerard van Es", "adres": "Industriestraat 59", "zipcode": "1976 CT", "null": [""]}, {"title": "Pannenkoekenboerderij Onder Plantanen", "adres": "Genieweg 50", "zipcode": "1981 LN", "null": [""]}, {"title": "De IJmond Brasserie & Restaurant", "adres": "Seinpostweg 40", "zipcode": "1976 BT", "null": [""]}, {"title": "Steiger 28", "adres": "Pontweg 28", "zipcode": "1432 BX", "null": [""]}, {"title": "Restaurant Himalaya Huis", "adres": "Marktstraat 32", "zipcode": "1431 BE", "null": [""]}, {"title": "Het Strandpaviljoen", "adres": "Oosteinderweg 247A", "zipcode": "1432 AT", "null": [""]}, {"title": "Restaurant De Chinese Muur", "adres": "Einsteinstraat 79A", "zipcode": "1433 BD", "null": [""]}, {"title": "Grand Cafe Il Gusto Ristorante", "adres": "Van Cleeffkade 5", "zipcode": "1431 BA", "null": [""]}, {"title": "Brasserie Caf\u00ef\u00bf\u00bd Oevers", "adres": "Kudelstaartseweg 228", "zipcode": "1433 GR", "null": [""]}, {"title": "Wagamama Max Euweplein", "adres": "Max Euweplein 10", "zipcode": "1017 MB", "null": [""]}, {"title": "Wagamama Rembrandtplein", "adres": "Amstelstraat 8", "zipcode": "1017 DA", "null": [""]}, {"title": "Wagamama Centraal", "adres": "De Ruijterkade 36B", "zipcode": "1012 AA", "null": [""]}, {"title": "FLO Amsterdam", "adres": "Amstelstraat 9", "zipcode": "1017 DA", "null": [""]}, {"title": "Restaurant d'Vijff Vlieghen", "adres": "Spuistraat 294-302", "zipcode": "1012 VX", "null": [""]}, {"title": "Restaurant Vinkeles Amsterdam", "adres": "Keizersgracht 384", "zipcode": "1016 GB", "null": [""]}, {"title": "Suitehotel | Restaurant Posthoorn", "adres": "Noordeinde 43", "zipcode": "1141 AG", "null": [""]}, {"title": "Restaurant WestergasTerras", "adres": "Klonne plein 4 - 6", "zipcode": "1014 DD", "null": [""]}, {"title": "Toro Dorado Quality Steaks", "adres": "Spuistraat 3D", "zipcode": "1012 SP", "null": [""]}, {"title": "Restaurant Stedelijk", "adres": "Museumplein 10", "zipcode": "1071 DJ", "null": [""]}, {"title": "&samhoud places", "adres": "Oosterdokskade 5", "zipcode": "1011 AD", "null": [""]}, {"title": "IJ-Kantine", "adres": "mt. Ondinaweg 15-17", "zipcode": "1033 RE", "null": [""]}, {"title": "tHUIS aan de AMSTEL", "adres": "Korte Ouderkerkerdijk  45", "zipcode": "1096 AC", "null": [""]}, {"title": "Brasserie van Baerle", "adres": "Van Baerlestraat 158", "zipcode": "1071 BG", "null": [""]}, {"title": "Instock", "adres": "Czaar Peterstraat 21", "zipcode": "1018 NW", "null": [""]}, {"title": "Wyers Bar ? Restaurant", "adres": "Nieuwendijk 60", "zipcode": "1012 MP", "null": [""]}, {"title": "Blue Pepper", "adres": "Nassaukade 366", "zipcode": "1054 AB", "null": [""]}, {"title": "The Avocado Show", "adres": "Daniel Stalpertstraat 61", "zipcode": "1072 XB", "null": [""]}, {"title": "Van der Valk Hotel Almere", "adres": "Veluwezoom 45", "zipcode": "1327 AK", "null": [""]}, {"title": "Ctaste - Dining in the dark", "adres": "Amsteldijk 55", "zipcode": "1074 HX", "null": [""]}, {"title": "The Dutch Weed Burger Joint", "adres": "Nicolaas Beetsstraat 47", "zipcode": "1053 RJ", "null": [""]}, {"title": "Serre", "adres": "Ferdinand Bolstraat", "zipcode": "1072 LH", "null": [""]}, {"title": "Yamazato Restaurant", "adres": "Ferdinand Bolstraat 333", "zipcode": "1072 LH", "null": [""]}, {"title": "Teppanyaki Restaurant Sazanka", "adres": "Ferdinand Bolstraat 333", "zipcode": "1072 LH", "null": [""]}, {"title": "Ciel Bleu Restaurant", "adres": "Ferdinand Bolstraat 333", "zipcode": "1072 LH", "null": [""]}, {"title": "Dignita Hoftuin", "adres": "Nieuwe Herengracht", "zipcode": "1018 DP", "null": [""]}, {"title": "Restaurant Spingaren", "adres": "Herengracht 88", "zipcode": "1015 BS", "null": [""]}, {"title": "H/eart.h", "adres": "Albert Cuypstraat 208", "zipcode": "1073 BM", "null": [""]}, {"title": "Het Blauwe Theehuis", "adres": "Vondelpark 5", "zipcode": "1071 AA", "null": [""]}, {"title": "Caf\u00ef\u00bf\u00bd Schiller", "adres": "Rembrandtplein 24A", "zipcode": "1017 CV", "null": [""]}, {"title": "Caf\u00ef\u00bf\u00bd het Paleis", "adres": "Paleisstraat 16", "zipcode": "1012 RB", "null": [""]}, {"title": "Brasserie Harkema (GESLOTEN)", "adres": "Nes 67", "zipcode": "1012 KD", "null": [""]}, {"title": "KinderkookKaf\u00ef\u00bf\u00bd", "adres": "Vondelpark 6B", "zipcode": "1071 AA", "null": [""]}, {"title": "Caffe Ristretto - Lunchrestaurant & Caf\u00ef\u00bf\u00bd", "adres": "Nieuwezijds Voorburgwal 182", "zipcode": "1012 SJ", "null": [""]}, {"title": "Caf\u00ef\u00bf\u00bd Restaurant de Passage", "adres": "Nieuwendijk 224", "zipcode": "1012 MX", "null": [""]}, {"title": "De Prins", "adres": "Prinsengracht 124", "zipcode": "1015 EA", "null": [""]}, {"title": "Eet- en Bierencaf\u00ef\u00bf\u00bd De Beiaard", "adres": "Spui 30", "zipcode": "1012 XA", "null": [""]}, {"title": "Bloem", "adres": "Entrepotdok 36", "zipcode": "1018 AD", "null": [""]}, {"title": "Caffe Oslo", "adres": "Sloterkade 1A", "zipcode": "1058 HD", "null": [""]}, {"title": "Caffe Milo", "adres": "Linnaeusstraat 71H", "zipcode": "1093 EJ", "null": [""]}, {"title": "Caf\u00ef\u00bf\u00bd 't Blaauwhooft", "adres": "Hendrik Jonkerplein 1", "zipcode": "1013 KM", "null": [""]}, {"title": "De Smoeshaan", "adres": "Leidsekade 90", "zipcode": "1017 PN", "null": [""]}, {"title": "De Toog", "adres": "Nicolaas Beetsstraat 142", "zipcode": "1054 XV", "null": [""]}, {"title": "Festina Lente", "adres": "Looiersgracht 40B", "zipcode": "1016 VS", "null": [""]}, {"title": "Golden Brown", "adres": "Wilhelminastraat 146", "zipcode": "1054 WT", "null": [""]}, {"title": "Gent aan de Schinkel", "adres": "Theophile de Bockstraat 1", "zipcode": "1058 TV", "null": [""]}, {"title": "Fidelio", "adres": "Stadionweg 100", "zipcode": "1077 SR", "null": [""]}, {"title": "Langendijk", "adres": "Zeeburgerstraat 1", "zipcode": "1018 AG", "null": [""]}, {"title": "Dulac", "adres": "Haarlemmerstraat 118", "zipcode": "1013 EX", "null": [""]}, {"title": "Louter", "adres": "De Clercqstraat 82", "zipcode": "1052 NK", "null": [""]}, {"title": "Luxembourg", "adres": "Spui 24", "zipcode": "1012 XA", "null": [""]}, {"title": "Polder", "adres": "Science Park 205", "zipcode": "1098 XH", "null": [""]}, {"title": "Wilhelmina Dok", "adres": "Noordwal 1", "zipcode": "1021 PX", "null": [""]}, {"title": "'t Kalfje", "adres": "Prinsenstraat 5", "zipcode": "1015 DA", "null": [""]}, {"title": "Grand Cafe Batavia", "adres": "Veerdijk 39", "zipcode": "1531 MS", "null": [""]}, {"title": "Sarphaat", "adres": "Ceintuurbaan 157A", "zipcode": "1072 GB", "null": [""]}, {"title": "Caf\u00ef\u00bf\u00bd Marie", "adres": "Marie Heinekenplein 5", "zipcode": "1072 MH", "null": [""]}, {"title": "Groot Melkhuis", "adres": "Vondelpark 2", "zipcode": "1071 AA", "null": [""]}, {"title": "Bar Spek", "adres": "Admiraal de Ruijterweg 1", "zipcode": "1057 JT", "null": [""]}, {"title": "Vondeltuin", "adres": "Vondelpark 7", "zipcode": "1075 VR", "null": [""]}, {"title": "Caf\u00ef\u00bf\u00bd Loetje", "adres": "Johannes Vermeerstraat 52", "zipcode": "1071 DT", "null": [""]}, {"title": "Toastable", "adres": "Singel 441", "zipcode": "1012 WP", "null": [""]}, {"title": "Moods Coffee Corner", "adres": "Lindengracht 249", "zipcode": "1015 KH", "null": [""]}, {"title": "Roots", "adres": "Amstelveenseweg 164", "zipcode": "1075 XN", "null": [""]}, {"title": "Caf\u00ef\u00bf\u00bd Maxwell", "adres": "Beukenplein 27", "zipcode": "1092 BB", "null": [""]}, {"title": "Bar Baarsch", "adres": "Jan Evertsenstraat 91", "zipcode": "1057 BS", "null": [""]}, {"title": "Viscafe de Gouden Hoek", "adres": "Van Limburg Stirumplein 10A", "zipcode": "1051 BE", "null": [""]}, {"title": "Caf\u00ef\u00bf\u00bd Lennep", "adres": "Jacob van Lennepkade", "zipcode": "1053 NJ", "null": [""]}, {"title": "Lokaal de Pijp", "adres": "Dusartstraat 51", "zipcode": "1072 HN", "null": [""]}, {"title": "Van de Buurt", "adres": "Gerard Callenburgstraat 1", "zipcode": "1055 TV", "null": [""]}, {"title": "Caf\u00ef\u00bf\u00bd Lust", "adres": "Cornelis Trooststraat", "zipcode": "1072 JC", "null": [""]}, {"title": "Caf\u00ef\u00bf\u00bd Kostverloren", "adres": "Tweede Kostverlorenkade", "zipcode": "1053 SB", "null": [""]}, {"title": "Het Warenhuis", "adres": "Haarlemmerstraat 65", "zipcode": "1013 EL", "null": [""]}, {"title": "De Koperen Vis", "adres": "Havenstraat 1", "zipcode": "1141 AW", "null": [""]}, {"title": "Taverne De Visscher", "adres": "Havenbuurt 22", "zipcode": "1156 AM", "null": [""]}, {"title": "Caf\u00ef\u00bf\u00bd Fabriek", "adres": "Jan Sijbrandsteeg 12", "zipcode": "1502 BA", "null": [""]}, {"title": "Eetcaf\u00ef\u00bf\u00bd - jachthaven 't Swaentje", "adres": "Westknollendam 64", "zipcode": "1525 PP", "null": [""]}, {"title": "Eetcaf\u00ef\u00bf\u00bd de Jachtclub", "adres": "Noorderlaaik 4A", "zipcode": "1511 BX", "null": [""]}, {"title": "Eetcaf\u00ef\u00bf\u00bd de Oude School", "adres": "Warder 128", "zipcode": "1473 PH", "null": [""]}, {"title": "De Prael Houthavens", "adres": "Nieuwe Hemweg 2", "zipcode": "1013 BG", "null": [""]}, {"title": "Het Marker Veerhuis", "adres": "Brugstraat 6", "zipcode": "1141 BB", "null": [""]}, {"title": "Caf\u00ef\u00bf\u00bd De Pijp", "adres": "Ferdinand Bolstraat 17-19", "zipcode": "1072 LA", "null": [""]}, {"title": "Anne&Max", "adres": "Gerard Douplein 10", "zipcode": "1072 VE", "null": [""]}, {"title": "Grand Caf\u00ef\u00bf\u00bd Amstelhoeck", "adres": "Amstel  1", "zipcode": "1011 PN", "null": [""]}, {"title": "Partisan Amsterdam", "adres": "Admiraal de Ruijterweg 79", "zipcode": "1057 JZ", "null": [""]}, {"title": "Barrica", "adres": "Wilhelminastraat 109", "zipcode": "1054 WB", "null": [""]}, {"title": "Broers", "adres": "Rooseveltlaan 67-HS", "zipcode": "1079 AE", "null": [""]}, {"title": "The Cottage", "adres": "Linnaeusstraat 88", "zipcode": "1092 CP", "null": [""]}, {"title": "(c) H/eart.h", "adres": "Albert Cuypstraat 208H", "zipcode": "1073 BM", "null": [""]}, {"title": "Caf\u00ef\u00bf\u00bd op 2", "adres": "Stadhuisplein 2", "zipcode": "1315 HT", "null": [""]}, {"title": "The Pancake Bakery", "adres": "Prinsengracht 191", "zipcode": "1015 DS", "null": [""]}, {"title": "'t Beemster Spijshuis", "adres": "Middenweg 177", "zipcode": "1462 HJ", "null": [""]}, {"title": "Pannenkoekenboot", "adres": "ms. van Riemsdijkweg t/o 38", "zipcode": "1033 RC", "null": [""]}, {"title": "Het Zaanse pannenkoekenpaleis", "adres": "Wilhelminastraat 8", "zipcode": "1501 CT", "null": [""]}, {"title": "Pannekoekenpaviljoen De Carrousel", "adres": "Tweede Weteringplantsoen 1", "zipcode": "1017 ZD", "null": [""]}, {"title": "Mook Pancakes", "adres": "De Clercqstraat 34", "zipcode": "1052 NG", "null": [""]}, {"title": "Cocotte", "adres": "Spuistraat 127", "zipcode": "1012 SV", "null": [""]}, {"title": "Pannekoekschip Wormerveer", "adres": "Zaanweg 51B", "zipcode": "1521 DL", "null": [""]}, {"title": "Pannenkoekenhuis De Witte Swaen", "adres": "Dorpsstraat 11-13", "zipcode": "1151 AC", "null": [""]}, {"title": "PANCAKES Amsterdam Negen Straatjes", "adres": "Berenstraat 38", "zipcode": "1016 GH", "null": [""]}, {"title": "PANCAKES Amsterdam Centraal", "adres": "Prins Hendrikkade 48", "zipcode": "1012 AC", "null": [""]}, {"title": "Beach Club Far Out", "adres": "Boulevard Paulus Loot 7", "zipcode": "2042 AD", "null": [""]}, {"title": "De Haven van Zandvoort", "adres": "Strandafgang Paulus Loot", "zipcode": "2042 AA", "null": [""]}, {"title": "Zandvoort Beach Clubs", "adres": "Boulevard Paulus Loot 7", "zipcode": "2042 AD", "null": [""]}, {"title": "Zout", "adres": "Boulevard Paulus Loot 3", "zipcode": "2042 AD", "null": [""]}, {"title": "Vooges", "adres": "Boulevard Paulus Loot 77", "zipcode": "2042 AD", "null": [""]}, {"title": "Skyline & First Wave", "adres": "Strandafgang De Favauge", "zipcode": "2042 TV", "null": [""]}, {"title": "Sandy Hill", "adres": "Strandafgang Barnaart 25", "zipcode": "2041 KB", "null": [""]}, {"title": "Havana", "adres": "Boulevard Paulus Loot 1c", "zipcode": "2042 AE", "null": [""]}, {"title": "George No 5 ? Mer du Nord", "adres": "Boulevard Barnaart 65", "zipcode": "2041 JA", "null": [""]}, {"title": "Mango?s Beach Bar", "adres": "Boulevard Barnaart 15", "zipcode": "2041 JA", "null": [""]}, {"title": "Safari Lodge", "adres": "Boulevard Paulus Loot", "zipcode": "2042 AE", "null": [""]}, {"title": "San Blas", "adres": "Zeeweg 84", "zipcode": "2051 EC", "null": [""]}, {"title": "Fuel", "adres": "Zeeweg 84", "zipcode": "2051 EC", "null": [""]}, {"title": "Republiek Bloemendaal", "adres": "Zeeweg 94", "zipcode": "2051 EC", "null": [""]}, {"title": "Vroeger", "adres": "Zeeweg 83", "zipcode": "2051 EC", "null": [""]}, {"title": "Club Nautique", "adres": "Boulevard Barnaart 23", "zipcode": "2041 JA", "null": [""]}, {"title": "Bloomingdale", "adres": "Zeeweg", "zipcode": "2051 EC", "null": [""]}, {"title": "Woodstock 69", "adres": "Zeeweg 94", "zipcode": " tent 7", "null": ["544303"]}, {"title": "Ajuma", "adres": "Zuidstrand  2", "zipcode": "2042 AG", "null": [""]}, {"title": "Tent 6", "adres": "Boulevard Paulus Loot 6", "zipcode": "2042 AD", "null": [""]}, {"title": "Rapa Nui", "adres": "Boulevard Barnaart 27", "zipcode": "2041 JA", "null": [""]}, {"title": "The Spot", "adres": "Strandafgang Barnaart 23a", "zipcode": "2041 KB", "null": [""]}, {"title": "Tijn Akersloot", "adres": "Boulevard Paulus Loot 1", "zipcode": "2042 AD", "null": [""]}, {"title": "Zilt aan zee", "adres": "Kennemerstrand 174", "zipcode": "1976 GA", "null": [""]}, {"title": "Aloha Beach", "adres": "Reyndersweg 2", "zipcode": "1951 LA", "null": [""]}, {"title": "Strandpaviljoen Timboektoe", "adres": "Reyndersweg 1", "zipcode": "1951 LA", "null": [""]}, {"title": "Paviljoen Zeezicht", "adres": "Kennemerstrand 180", "zipcode": "1976 GA", "null": [""]}, {"title": "Paviljoen Nova Zembla", "adres": "Kennemermeer 25", "zipcode": "1976 GK", "null": [""]}, {"title": "Beach Inn", "adres": "Kennemerstrand 800", "zipcode": "1976 GA", "null": [""]}, {"title": "Paviljoen Noordzee", "adres": "Kennemerstrand 178", "zipcode": "1976 GA", "null": [""]}, {"title": "Eetsalon van Dobben B.V.", "adres": "Korte Reguliersdwstr 5-9", "zipcode": "1017 BH", "null": [""]}, {"title": "Eetsalon van Dobben de Pijp", "adres": "Ferdinand Bolstraat 53", "zipcode": "1072 LB", "null": [""]}, {"title": "Cora Delicatessen & Broodjes", "adres": "Prinsengracht 705A", "zipcode": "1017 JV", "null": [""]}, {"title": "Jonk Haringhandel", "adres": "Spui", "zipcode": " tegenover Esprit 10", "null": ["890406"]}, {"title": "Vlaamsch Broodhuys", "adres": "1e C Huygensstr 64", "zipcode": "1054 BR", "null": [""]}, {"title": "Koffiehuis De Hoek", "adres": "Prinsengracht 341", "zipcode": "1016 HK", "null": [""]}, {"title": "Sal Meyer", "adres": "Buitenveldertselaan 114", "zipcode": "1081 AB", "null": [""]}, {"title": "Het wapen van Middelie", "adres": "Brink 1", "zipcode": "1472 GB", "null": [""]}, {"title": "Frozz", "adres": "Leidsestraat 69", "zipcode": "1017 PD", "null": [""]}, {"title": "H\u00ef\u00bf\u00bdagen-Dazs IJssalon", "adres": "Rembrandtplein 7", "zipcode": "1017 CT", "null": [""]}, {"title": "Metropolitan", "adres": "Warmoesstraat 135", "zipcode": "1012 JB", "null": [""]}, {"title": "Koel", "adres": "Zeedijk 127", "zipcode": "1012 AW", "null": [""]}, {"title": "Lanskroon", "adres": "Singel 385", "zipcode": "1012 WL", "null": [""]}, {"title": "Pisa IJs", "adres": "Scheldeplein t.o. nr 10", "zipcode": "1078 GR", "null": [""]}, {"title": "Monte Pelmo", "adres": "2e Anjeliersdwarsstraat 17", "zipcode": "1015 NS", "null": [""]}, {"title": "Veneti\u00ef\u00bf\u00bd IJs", "adres": "Scheldestraat 68", "zipcode": "1078 GM", "null": [""]}, {"title": "IJscuypje", "adres": "1e van der Helststraat 27", "zipcode": "1073 AC", "null": [""]}, {"title": "Mezzo ijssalon en lunchroom", "adres": "Dapperplein 36", "zipcode": "1093 GS", "null": [""]}, {"title": "Jordino", "adres": "Haarlemmerdijk 25A", "zipcode": "1013 KA", "null": [""]}, {"title": "Het IJspaleis", "adres": "Eerste Sweelinckstraat 20", "zipcode": "1073 CM", "null": [""]}, {"title": "Frozen Yoghurt Company", "adres": "Utrechtsestraat 115", "zipcode": "1017 VL", "null": [""]}, {"title": "IJsboutique", "adres": "Johannes Verhulststraat 107H", "zipcode": "1071 MX", "null": [""]}, {"title": "Theehuis Cruquius", "adres": "Cruquiusdijk 32", "zipcode": "2142 ER", "null": [""]}, {"title": "Het Weeshuis", "adres": "Weezenland 16", "zipcode": "1141 BN", "null": [""]}, {"title": "Harar Coffee", "adres": "2e Hugo de Grootstraat 22", "zipcode": "1052 LD", "null": [""]}, {"title": "Het wapen van Middelie", "adres": "Brink 1", "zipcode": "1472 GB", "null": [""]}, {"title": "Toko Boemboe Bali", "adres": "Haven 11", "zipcode": "1141 AZ", "null": [""]}, {"title": "De Verkeerde Wereld", "adres": "Buurterstraat 20", "zipcode": "1156 AS", "null": [""]}, {"title": "Latei", "adres": "Zeedijk 143", "zipcode": "1012 AW", "null": [""]}, {"title": "Lunchroom Ab M\u00ef\u00bf\u00bdller", "adres": "Stationsweg 5", "zipcode": "1431 EG", "null": [""]}, {"title": "De Koffiezaak", "adres": "Hermitage 11", "zipcode": "1506 TX", "null": [""]}, {"title": "Brasserie Bel Ami", "adres": "Brinklaan 86", "zipcode": "1404 GN", "null": [""]}, {"title": "De Bakkerswinkel", "adres": "Polonceau-kade 1", "zipcode": "1014 DA", "null": [""]}, {"title": "Bagels & Beans", "adres": "Ferdinand Bolstraat 70", "zipcode": "1072 LM", "null": [""]}, {"title": "Bagels & Beans Amsterdam Oud West", "adres": "De Clercqstraat 22HS", "zipcode": "1052 ND", "null": [""]}, {"title": "Gartine", "adres": "Taksteeg 7BG", "zipcode": "1012 PB", "null": [""]}, {"title": "Boterham", "adres": "Andreas Bonnstraat 2", "zipcode": "1091 AX", "null": [""]}, {"title": "Petit G\u00ef\u00bf\u00bdteau", "adres": "Haarlemmerstraat 80", "zipcode": "1013 EV", "null": [""]}, {"title": "Sugarless", "adres": "Bilderdijkstraat 92", "zipcode": "1053 KX", "null": [""]}, {"title": "Venkel Salades", "adres": "Albert Cuypstraat 22", "zipcode": "1072 CT", "null": [""]}, {"title": "LAVINIA Good Food", "adres": "Kerkstraat 176", "zipcode": "1017 GT", "null": [""]}, {"title": "Hofje zonder Zorgen", "adres": "Grote Houtstraat 142a", "zipcode": "2011 SV", "null": [""]}, {"title": "Sugar & Spice", "adres": "Zeedijk 75", "zipcode": "1012 AS", "null": [""]}, {"title": "Lebkov & Sons", "adres": "Hoekenrode 6", "zipcode": "1102 BR", "null": [""]}, {"title": "@7", "adres": "Scheldestraat 92", "zipcode": "1078 GN", "null": [""]}, {"title": "Beter & Leuk", "adres": "Eerste Oosterparkstraat 91", "zipcode": "1091 GW", "null": [""]}, {"title": "Bakhuys Amsterdam", "adres": "Sarphatistraat 61", "zipcode": "1018 EX", "null": [""]}, {"title": "LITE/DARK", "adres": "Utrechtsestraat 22", "zipcode": "1017 VN", "null": [""]}, {"title": "Dr. Blend", "adres": "Herenstraat 23", "zipcode": "1015 BZ", "null": [""]}, {"title": "Two for Joy", "adres": "Haarlemmerdijk 182HS", "zipcode": "1013 JK", "null": [""]}, {"title": "Singel 404", "adres": "Singel 404", "zipcode": "1016 AK", "null": [""]}, {"title": "Yoghurt Barn", "adres": "1e van der Helststraat 80", "zipcode": "1072 NZ", "null": [""]}, {"title": "Koffie Academie", "adres": "Overtoom 95", "zipcode": "1054 HD", "null": [""]}, {"title": "Bedford-Stuyvesant", "adres": "Javastraat 55", "zipcode": "1094 HA", "null": [""]}, {"title": "Nielsen", "adres": "Berenstraat 19", "zipcode": "1016 GG", "null": [""]}, {"title": "My Little Patisserie", "adres": "1e van der Helststraat 63", "zipcode": "1073 AD", "null": [""]}, {"title": "Back to Black", "adres": "Weteringstraat 48", "zipcode": "1017 SP", "null": [""]}, {"title": "Salad & the City", "adres": "Bilderdijkstraat 164", "zipcode": "1053 LC", "null": [""]}, {"title": "George W.P.A.", "adres": "Willemsparkweg 74", "zipcode": "1071 HK", "null": [""]}, {"title": "Biologische Snackbar 't Wethoudertje", "adres": "Wethouder Frankeweg 11", "zipcode": "1098 KV", "null": [""]}, {"title": "Rein", "adres": "Wibautstraat 80-84", "zipcode": "1091 GP", "null": [""]}, {"title": "Betty Blue", "adres": "Snoekjessteeg 1-3", "zipcode": "1011 HA", "null": [""]}, {"title": "Gs Amsterdam", "adres": "Goudsbloemstraat 91", "zipcode": "1015 JK", "null": [""]}, {"title": "Pluk 9 Straatjes", "adres": "Reestraat 19", "zipcode": "1016 DM", "null": [""]}, {"title": "The Breakfast Club", "adres": "Bellamystraat 2 H", "zipcode": "1053 BL", "null": [""]}, {"title": "Coffee Room", "adres": "Kinkerstraat 110", "zipcode": "1053 EC", "null": [""]}, {"title": "De Drie Graefjes", "adres": "Gravenstraat 1", "zipcode": "1012 NL", "null": [""]}, {"title": "Toki", "adres": "Binnen Dommersstraat 15", "zipcode": "1013 HK", "null": [""]}, {"title": "WIJS WEST", "adres": "Bilderdijkstraat 62", "zipcode": "1053 KV", "null": [""]}, {"title": "Lunchroom Lastig", "adres": "Christiaan Huygensplein 33", "zipcode": "1098 RA", "null": [""]}, {"title": "The Breakfast Club Oost", "adres": "Wibautstraat 56", "zipcode": "1091 GN", "null": [""]}, {"title": "STROOM", "adres": "Ferdinand Bolstraat 151", "zipcode": "1072 LH", "null": [""]}, {"title": "Scandinavian Embassy", "adres": "Sarphatipark 34", "zipcode": "1072 PB", "null": [""]}, {"title": "Bakers & Roasters", "adres": "1e Jacob van Campenstr 54", "zipcode": "1072 BH", "null": [""]}, {"title": "MYLK", "adres": "Strawinskylaan 77", "zipcode": "1077 XW", "null": [""]}, {"title": "Bar Brasserie Occo", "adres": "Keizersgracht 384", "zipcode": "1016 GB", "null": [""]}, {"title": "Lokaal Spaanders", "adres": "Zonneplein 18", "zipcode": "1033 EK", "null": [""]}, {"title": "Twentyfiveseven", "adres": "Entrepotdok 64", "zipcode": "1018 AD", "null": [""]}, {"title": "Harewood Bakery", "adres": "Albert Cuypstraat 62", "zipcode": "1072 CV", "null": [""]}, {"title": "Monks Coffee Roasters", "adres": "Bilderdijkstraat 46", "zipcode": "1052 NB", "null": [""]}, {"title": "Miss Louisa Coffee & Beignets", "adres": "Nieuwezijds Voorburgwal 5", "zipcode": "1012 RC", "null": [""]}, {"title": "Miss Louisa Coffee + Beignets", "adres": "Nieuwezijds Voorburgwal 1", "zipcode": "1012 RC", "null": [""]}]